ACS3                    
1 59588U 24077B   24204.65512498  .00000089  00000+0  13952-3 0  9996
2 59588  97.4045 264.5950 0020043   1.7086 358.4130 13.67692977 12259
